#aV2013  3 10  0  0  0.00000000     288 DD+AD WGS84 FIT  NGA
## 1731      0.00000000   300.00000000 56361 0.0000000000000
+   31     1  2  3  4  5  6  7  8  9 10 11 12 13 14 15 16 17
+         18 19 20 21 22 23 24 25 26 28 29 30 31 32  0  0  0
+          0  0  0  0  0  0  0  0  0  0  0  0  0  0  0  0  0
+          0  0  0  0  0  0  0  0  0  0  0  0  0  0  0  0  0
+          0  0  0  0  0  0  0  0  0  0  0  0  0  0  0  0  0
++         2  2  2  2  2  2  2  2  2  2  2  2  2  2  2  2  2
++         2  2  2  2  2  2  2  2  2  2  2  2  2  2  2  0  0
++         0  0  0  0  0  0  0  0  0  0  0  0  0  0  0  0  0
++         0  0  0  0  0  0  0  0  0  0  0  0  0  0  0  0  0
++         0  0  0  0  0  0  0  0  0  0  0  0  0  0  0  0  0
%c cc cc ccc ccc cccc cccc cccc cccc ccccc ccccc ccccc ccccc
%c cc cc ccc ccc cccc cccc cccc cccc ccccc ccccc ccccc ccccc
%f  0.0000000  0.000000000  0.00000000000  0.000000000000000
%f  0.0000000  0.000000000  0.00000000000  0.000000000000000
%i    0    0    0    0      0      0      0      0         0
%i    0    0    0    0      0      0      0      0         0
/*      NGA, ST. LOUIS,MO.                                  
/*   EPHEMERIS COMPUTED FROM  1 DAYS OF DATA
/*   EPOCHA SMOOTHER  
/* CCCCCCCCCCCCCCCCCCCCCCCCCCCCCCCCCCCCCCCCCCCCCCCCCCCCCCCCC
*  2013  3 10  6 40  0.00000000                                                 
P  1  15099.931393  -2303.147303  21713.313414      6.278719                    
V  1   7060.227541  26694.099475  -2004.291667      0.029900                    
P  2 -13846.182956 -20384.259835 -10365.472598    421.698220                    
V  2  -1117.802385 -13533.810285  27091.565207      0.015351                    
P  3  23195.682647   9743.401148  -9365.362821    178.606668                    
V  3 -11448.158889   1683.184218 -27907.395632      0.050473                    
P  4  -6480.623788 -25578.613821    692.414163    156.990636                    
V  4   3973.912790    174.959946  31415.659241      0.109016                    
P  5 -14255.081809  -7248.772365 -21253.176700   -387.187952                    
V  5  18590.917227 -19503.292180  -5686.960865     -0.016068                    
P  6  19082.517414  13429.090689 -12912.804169    320.775304                    
V  6 -16642.121384   -727.796579 -24816.773862     -0.150309                    
P  7   8017.761321 -17765.657719 -17866.373673    189.474845                    
V  7   7026.960323  21786.413382 -18746.428104      0.043079                    
P  8   2332.967565 -24358.235733  -9437.497406      5.046427                    
V  8   3811.676359  11830.850487 -29839.468746      0.002042                    
P  9 -13230.753230 -19676.482971  11341.604058    225.949365                    
V  9  -2152.570575 -15219.280214 -27653.529973      0.025545                    
P 10   1213.024295 -19471.354464 -18124.015350    -72.680328                    
V 10  17637.311699 -14342.403068  17271.997508     -0.013934                    
P 11  19235.965346   3998.249929  17553.542238   -361.004850                    
V 11  10148.746387  21174.367593 -15284.434983     -0.036775                    
P 12 -21451.038466   8330.815566  13052.197269    122.048512                    
V 12  10819.229316 -12796.758313  26101.492228      0.020563                    
P 13  18016.838886  -6505.848238 -18593.366832    138.804858                    
V 13  21368.950707   9138.415567  17533.499955     -0.029439                    
P 14   2116.562766  16000.824431  21314.024411    220.882993                    
V 14 -25287.029826  -8081.291919   8519.190598      0.001346                    
P 15 -26223.881227  -3630.330506   3440.959977   -110.998565                    
V 15  -3533.812181  -4093.017992 -30753.368527     -0.013398                    
P 16  12802.174564   8028.599315 -21883.843551   -252.583604                    
V 16 -20322.485218  18764.840555  -4679.420099     -0.000568                    
P 17  -3833.000049 -16314.817431  20871.246113     41.905943                    
V 17  25006.770128   6965.928598   9907.731255     -0.038576                    
P 18 -14325.163072  21275.865083   6538.861086    243.202787                    
V 18  -8370.205065   2849.844451 -29715.237220      0.018346                    
P 19  25379.186365   8501.718264   1054.230884   -355.112800                    
V 19    498.673885   2766.666918 -31471.847988     -0.031966                    
P 20  21225.371001 -11276.569941  11048.908813     87.490238                    
V 20  -7094.867441  12964.890328  26509.964054      0.017020                    
P 21  -5425.120977  20999.518217 -14412.253055   -285.179976                    
V 21  -8211.185306 -18032.931614 -22885.513835     -0.022389                    
P 22  -4720.955750  21137.124514  15469.598613    160.719805                    
V 22 -15733.050580  11802.129808 -21320.068180      0.010805                    
P 23  24076.676688  -1667.714320 -11457.039002    106.447613                    
V 23  13371.817928   6066.413357  26692.293291     -0.036800                    
P 24 -15911.691448  -1757.765922  21194.167557     -2.404878                    
V 24  -6634.752787 -26099.169420  -7107.715580     -0.006899                    
P 25 -19821.607648  17345.910704   2949.310262     76.626423                    
V 25    851.413181  -4484.199411  31769.131721      0.032706                    
P 26 -21559.612644 -13835.957577  -8302.914126    -72.387942                    
V 26   9539.416204   1728.154920 -29640.633360      0.144417                    
P 28   9144.890782 -20875.600628  14062.969281    239.590695                    
V 28  13648.868056 -10116.315502 -25112.202599      0.034231                    
P 29 -17487.205166   7772.857439 -18343.981518    415.239686                    
V 29 -21865.310447  -8496.596987  17231.858228      0.035678                    
P 30   4816.815708  16662.322845 -20471.971332   -209.170246                    
V 30 -16608.787069  18978.391712  11720.643296      0.073955                    
P 31   7599.885102  25189.178420  -2050.752988    305.849624                    
V 31  -1672.188437   3332.179569  32244.633717      0.016468                    
P 32  20468.169036  -1636.793066  16701.881059   -541.929691                    
V 32 -14701.892773  15412.437492  20206.514778     -0.030416                    
EOF
